OBJECT_NAME,OBJECT_ID,EPOCH,MEAN_MOTION,ECCENTRICITY,INCLINATION,RA_OF_ASC_NODE,ARG_OF_PERICENTER,MEAN_ANOMALY,EPHEMERIS_TYPE,CLASSIFICATION_TYPE,NORAD_CAT_ID,ELEMENT_SET_NO,REV_AT_EPOCH,BSTAR,MEAN_MOTION_DOT,MEAN_MOTION_DDOT
STARLINK-32658,2025-031U,2026-05-16T23:56:17.223648,15.27588081,.0000801,42.9989,117.4251,262.5668,97.5092,0,U,62999,999,7154,.48962E-3,.13239E-3,0
STARLINK-32673,2025-031V,2026-05-17T05:04:40.137888,15.27592533,.0001383,43.0021,116.4523,275.1143,84.9551,0,U,63000,999,7157,.53962E-3,.14622E-3,0
STARLINK-32437,2025-031W,2026-05-16T15:34:15.742848,15.27583484,.00011912,42.9977,119.9746,278.7422,81.3295,0,U,63001,999,7148,.4518253E-3,.12193E-3,0
FOSSASAT-2E20 (TAT-O),2025-009DN,2026-05-17T03:24:26.612352,15.28880081,.0004498,97.3175,213.5135,92.0103,268.1652,0,U,63003,999,13176,.39312E-3,.10965E-3,0
STARLINK-11448 [DTC],2025-032A,2026-05-17T00:21:25.264800,15.70955514,.0000686,42.9979,143.1381,141.8667,218.2249,0,U,63005,999,7297,.12723E-2,.166926E-2,0
STARLINK-11553 [DTC],2025-032B,2026-05-17T01:37:54.863040,15.70922931,.0000975,42.9999,143.5639,216.5306,143.5496,0,U,63006,999,7296,.19189E-2,.254348E-2,0
STARLINK-11526 [DTC],2025-032C,2026-05-16T10:29:44.562048,15.70894601,.0001216,42.9984,146.5443,263.6669,96.4060,0,U,63007,999,7287,.11959E-2,.156282E-2,0
STARLINK-11405 [DTC],2025-032D,2026-05-16T17:46:06.710880,15.70898702,.00007861,43.0004,145.4023,24.9839,335.1067,0,U,63008,999,7276,.16169512E-2,.212956E-2,0
STARLINK-11586 [DTC],2025-032E,2026-05-16T16:00:01.999584,15.70864324,.00015002,43.0000,145.6078,273.5214,124.8612,0,U,63009,999,600,-.50891749E-3,-.65306E-3,0
STARLINK-11574 [DTC],2025-032F,2026-05-16T17:37:09.582816,15.70875905,.00017625,43.0000,145.3501,62.4871,297.6175,0,U,63010,999,7291,.13320235E-2,.174364E-2,0
STARLINK-11580 [DTC],2025-032G,2026-05-17T00:36:42.471648,15.70971755,.0000918,42.9983,143.2196,235.0880,124.9902,0,U,63011,999,7281,.15734E-2,.207713E-2,0
STARLINK-11449 [DTC],2025-032H,2026-05-16T08:04:51.089088,15.70972879,.00021126,42.9952,147.5224,225.8952,134.1742,0,U,63012,999,7285,.1325064E-2,.17416E-2,0
STARLINK-11577 [DTC],2025-032J,2026-05-17T01:07:17.658624,15.70887092,.0001302,42.9986,143.3902,272.6112,87.4607,0,U,63013,999,7296,.16437E-2,.216469E-2,0
STARLINK-11578 [DTC],2025-032K,2026-05-17T01:30:15.286752,15.70830931,.000118,42.9995,143.5178,242.6164,117.4584,0,U,63014,999,7291,.15805E-2,.207415E-2,0
STARLINK-11541 [DTC],2025-032L,2026-05-17T00:29:03.742080,15.70934864,.0000983,42.9977,143.1746,248.5328,111.5435,0,U,63015,999,7297,.11122E-2,.145359E-2,0
STARLINK-11545 [DTC],2025-032M,2026-05-16T17:06:34.500384,15.70867585,.00012389,42.9999,145.1772,36.1676,323.9275,0,U,63016,999,7292,.13682716E-2,.179161E-2,0
STARLINK-11400 [DTC],2025-032N,2026-05-17T01:22:34.696128,15.70914745,.0001304,42.9993,143.4731,264.2189,95.8530,0,U,63017,999,7296,.16008E-2,.210916E-2,0
STARLINK-32870,2025-032P,2026-05-17T04:17:08.231136,15.27588294,.0000729,43.0000,309.3307,272.6170,87.4598,0,U,63018,999,7109,.23249E-3,.6143E-4,0
STARLINK-32872,2025-032Q,2026-05-17T04:48:36.276768,15.27516088,.0000812,43.0003,309.5025,111.3900,248.7038,0,U,63019,999,7109,.21398E-2,.58977E-3,0
STARLINK-32677,2025-032R,2026-05-17T04:22:41.314368,15.27581970,.0000615,43.0005,309.3633,284.6658,75.4126,0,U,63020,999,7108,-.37426E-4,-.1292E-4,0
STARLINK-32929,2025-032S,2026-05-17T04:28:14.331936,15.27583583,.0000877,43.0006,309.3917,270.4768,89.5983,0,U,63021,999,7109,.86743E-4,.2126E-4,0
STARLINK-32944,2025-032T,2026-05-17T04:54:09.114624,15.27575741,.0001295,43.0024,309.5334,273.4826,86.5878,0,U,63022,999,7109,.60994E-3,.16558E-3,0
STARLINK-32943,2025-032U,2026-05-16T21:34:36.070176,15.27606240,.0001229,43.0003,310.6804,271.0127,89.0584,0,U,63023,999,7105,.61314E-3,.16662E-3,0
STARLINK-32803,2025-032V,2026-05-16T21:29:02.707008,15.27623795,.0001506,43.0009,310.6451,270.4541,89.6138,0,U,63024,999,7089,.70854E-3,.19313E-3,0
STARLINK-32926,2025-032W,2026-05-16T19:45:38.411136,15.27602424,.0001748,42.9985,310.9610,263.9607,96.1045,0,U,63025,999,7104,.7588E-3,.20692E-3,0
GLOBAL-31,2025-033B,2026-05-17T03:01:58.043136,15.38753389,.0013503,58.9988,81.7041,49.4418,310.7831,0,U,63027,999,6954,.30887E-3,.11656E-3,0
STARLINK-32798,2025-034A,2026-05-16T21:48:02.996928,15.30199471,.0000905,53.1608,313.8842,73.2798,286.8302,0,U,63029,999,6935,.91898E-3,.26957E-3,0
STARLINK-32779,2025-034B,2026-05-16T21:36:03.214944,15.30228618,.0000752,53.1626,314.5382,103.0470,257.0615,0,U,63030,999,6934,.8422E-3,.24689E-3,0
STARLINK-32716,2025-034C,2026-05-17T04:00:26.461152,15.30185941,.000335,53.1530,299.8634,80.5271,279.6108,0,U,63031,999,6957,.14969E-3,.4074E-4,0
STARLINK-32776,2025-034D,2026-05-17T00:00:02.000160,15.34362298,.0001121,53.1585,301.0119,83.8220,247.9977,0,U,63032,999,588,.40131E-3,.1319E-3,0
