STARLINK-32658          
1 62999U 25031U   26136.99742157  .00013239  00000+0  48962-3 0  9997
2 62999  42.9989 117.4251 0000801 262.5668  97.5092 15.27588081 71547
STARLINK-32673          
1 63000U 25031V   26137.21157567  .00014622  00000+0  53962-3 0  9995
2 63000  43.0021 116.4523 0001383 275.1143  84.9551 15.27592533 71575
STARLINK-32437          
1 63001U 25031W   26136.64879332  .00012193  00000+0  45183-3 0  9990
2 63001  42.9977 119.9746 0001191 278.7422  81.3295 15.27583484 71486
FOSSASAT-2E20 (TAT-O)   
1 63003U 25009DN  26137.14197468  .00010965  00000+0  39312-3 0  9998
2 63003  97.3175 213.5135 0004498  92.0103 268.1652 15.28880081131765
STARLINK-11448 [DTC]    
1 63005U 25032A   26137.01487575  .00166926  00000+0  12723-2 0  9998
2 63005  42.9979 143.1381 0000686 141.8667 218.2249 15.70955514 72975
STARLINK-11553 [DTC]    
1 63006U 25032B   26137.06799610  .00254348  00000+0  19189-2 0  9999
2 63006  42.9999 143.5639 0000975 216.5306 143.5496 15.70922931 72969
STARLINK-11526 [DTC]    
1 63007U 25032C   26136.43732132  .00156282  00000+0  11959-2 0  9991
2 63007  42.9984 146.5443 0001216 263.6669  96.4060 15.70894601 72879
STARLINK-11405 [DTC]    
1 63008U 25032D   26136.74035545  .00212956  00000+0  16170-2 0  9991
2 63008  43.0004 145.4023 0000786  24.9839 335.1067 15.70898702 72769
STARLINK-11586 [DTC]    
1 63009U 25032E   26136.66668981 -.00065306  00000+0 -50892-3 0  9996
2 63009  43.0000 145.6078 0001500 273.5214 124.8612 15.70864324  6008
STARLINK-11574 [DTC]    
1 63010U 25032F   26136.73413869  .00174364  00000+0  13320-2 0  9996
2 63010  43.0000 145.3501 0001762  62.4871 297.6175 15.70875905 72915
STARLINK-11580 [DTC]    
1 63011U 25032G   26137.02549157  .00207713  00000+0  15734-2 0  9996
2 63011  42.9983 143.2196 0000918 235.0880 124.9902 15.70971755 72810
STARLINK-11449 [DTC]    
1 63012U 25032H   26136.33670242  .00174160  00000+0  13251-2 0  9991
2 63012  42.9952 147.5224 0002112 225.8952 134.1742 15.70972879 72858
STARLINK-11577 [DTC]    
1 63013U 25032J   26137.04673216  .00216469  00000+0  16437-2 0  9993
2 63013  42.9986 143.3902 0001302 272.6112  87.4607 15.70887092 72965
STARLINK-11578 [DTC]    
1 63014U 25032K   26137.06267693  .00207415  00000+0  15805-2 0  9993
2 63014  42.9995 143.5178 0001180 242.6164 117.4584 15.70830931 72914
STARLINK-11541 [DTC]    
1 63015U 25032L   26137.02018220  .00145359  00000+0  11122-2 0  9996
2 63015  42.9977 143.1746 0000983 248.5328 111.5435 15.70934864 72975
STARLINK-11545 [DTC]    
1 63016U 25032M   26136.71289931  .00179161  00000+0  13683-2 0  9993
2 63016  42.9999 145.1772 0001238  36.1676 323.9275 15.70867585 72923
STARLINK-11400 [DTC]    
1 63017U 25032N   26137.05734602  .00210916  00000+0  16008-2 0  9990
2 63017  42.9993 143.4731 0001304 264.2189  95.8530 15.70914745 72965
STARLINK-32870          
1 63018U 25032P   26137.17856749  .00006143  00000+0  23249-3 0  9992
2 63018  43.0000 309.3307 0000729 272.6170  87.4598 15.27588294 71094
STARLINK-32872          
1 63019U 25032Q   26137.20041987  .00058977  00000+0  21398-2 0  9991
2 63019  43.0003 309.5025 0000812 111.3900 248.7038 15.27516088 71093
STARLINK-32677          
1 63020U 25032R   26137.18242262 -.00001292  00000+0 -37426-4 0  9990
2 63020  43.0005 309.3633 0000615 284.6658  75.4126 15.27581970 71089
STARLINK-32929          
1 63021U 25032S   26137.18627699  .00002126  00000+0  86743-4 0  9993
2 63021  43.0006 309.3917 0000877 270.4768  89.5983 15.27583583 71091
STARLINK-32944          
1 63022U 25032T   26137.20427216  .00016558  00000+0  60994-3 0  9993
2 63022  43.0024 309.5334 0001295 273.4826  86.5878 15.27575741 71097
STARLINK-32943          
1 63023U 25032U   26136.89902859  .00016662  00000+0  61314-3 0  9992
2 63023  43.0003 310.6804 0001229 271.0127  89.0584 15.27606240 71052
STARLINK-32803          
1 63024U 25032V   26136.89517022  .00019313  00000+0  70854-3 0  9992
2 63024  43.0009 310.6451 0001506 270.4541  89.6138 15.27623795 70894
STARLINK-32926          
1 63025U 25032W   26136.82336124  .00020692  00000+0  75880-3 0  9994
2 63025  42.9985 310.9610 0001748 263.9607  96.1045 15.27602424 71048
GLOBAL-31               
1 63027U 25033B   26137.12636624  .00011656  00000+0  30887-3 0  9997
2 63027  58.9988  81.7041 0013503  49.4418 310.7831 15.38753389 69549
STARLINK-32798          
1 63029U 25034A   26136.90836802  .00026957  00000+0  91898-3 0  9994
2 63029  53.1608 313.8842 0000905  73.2798 286.8302 15.30199471 69356
STARLINK-32779          
1 63030U 25034B   26136.90003721  .00024689  00000+0  84220-3 0  9993
2 63030  53.1626 314.5382 0000752 103.0470 257.0615 15.30228618 69346
STARLINK-32716          
1 63031U 25034C   26137.16697293  .00004074  00000+0  14969-3 0  9995
2 63031  53.1530 299.8634 0003350  80.5271 279.6108 15.30185941 69574
STARLINK-32776          
1 63032U 25034D   26137.00002315  .00013190  00000+0  40131-3 0  9993
2 63032  53.1585 301.0119 0001121  83.8220 247.9977 15.34362298  5885
